     2              NAVIGATION DATA                         RINEX VERSION / TYPE
CCRINEXN V1.6.0 UX  CDDIS               20-SEP-24 12:26     PGM / RUN BY / DATE 
IGS BROADCAST EPHEMERIS FILE                                COMMENT             
    0.2235D-07  0.1490D-07 -0.1192D-06 -0.1192D-06          ION ALPHA           
    0.1290D+06  0.0000D+00 -0.2621D+06  0.2621D+06          ION BETA            
    0.279396772385D-08 0.115463194561D-13    61440     2333 DELTA-UTC: A0,A1,T,W
    18                                                      LEAP SECONDS        
                                                            END OF HEADER       
29 24  9 20  2  0  0.0-0.576730351895D-03 0.250111042988D-11 0.000000000000D+00
    0.121000000000D+03-0.502812500000D+02 0.483091551274D-08 0.224539899091D+00
   -0.279769301414D-05 0.292146299034D-02 0.228174030781D-05 0.515376395607D+04
    0.439200000000D+06-0.428408384323D-07-0.955896214080D+00-0.707805156708D-07
    0.969391678712D+00 0.339000000000D+03 0.267459655182D+01-0.855892794228D-08
   -0.363586573412D-09 0.100000000000D+01 0.233200000000D+04 0.000000000000D+00
    0.200000000000D+01 0.000000000000D+00-0.977888700000D-08 0.121000000000D+03
    0.432030000000D+06 0.400000000000D+01 0.000000000000D+00 0.000000000000D+00
30 24  9 20  2  0  0.0-0.318049918860D-03 0.716227077646D-11 0.000000000000D+00
    0.360000000000D+02-0.360625000000D+02 0.493913430620D-08-0.265186653384D+01
   -0.208616256714D-05 0.717579305638D-02 0.125840306282D-04 0.515358644486D+04
    0.439200000000D+06 0.186264514923D-08-0.312708720202D+01-0.109896063805D-06
    0.936014178690D+00 0.126281250000D+03-0.244879011970D+01-0.809319425688D-08
   -0.297155234851D-09 0.100000000000D+01 0.233200000000D+04 0.000000000000D+00
    0.200000000000D+01 0.000000000000D+00 0.372529029846D-08 0.360000000000D+02
    0.432018000000D+06 0.400000000000D+01 0.000000000000D+00 0.000000000000D+00
32 24  9 20  2  0  0.0-0.595475547016D-03 0.375166564481D-11 0.000000000000D+00
    0.138000000000D+03-0.267500000000D+02 0.502878089748D-08 0.100801996915D+01
   -0.149942934513D-05 0.787017960101D-02 0.404193997383D-05 0.515371728706D+04
    0.439200000000D+06-0.124797224999D-06 0.209983284009D+01 0.298023223877D-07
    0.962558566839D+00 0.300156250000D+03-0.213455175992D+01-0.857071414750D-08
   -0.156077929844D-09 0.100000000000D+01 0.233200000000D+04 0.000000000000D+00
    0.200000000000D+01 0.000000000000D+00 0.931322600000D-09 0.138000000000D+03
    0.432060000000D+06 0.400000000000D+01 0.000000000000D+00 0.000000000000D+00
11 24  9 20  2 44 32.0-0.736444722861D-03-0.397903932026D-11 0.000000000000D+00
    0.370000000000D+02-0.791250000000D+02 0.412552898770D-08-0.119013083178D+00
   -0.423379242420D-05 0.171800958924D-02 0.112019479275D-04 0.515377845001D+04
    0.441872000000D+06-0.186264514923D-08 0.622233962428D-01 0.372529029846D-07
    0.966502725644D+00 0.167062500000D+03-0.252656560055D+01-0.794354516626D-08
   -0.339657005220D-09 0.100000000000D+01 0.233200000000D+04 0.000000000000D+00
    0.200000000000D+01 0.000000000000D+00-0.884756445885D-08 0.805000000000D+03
    0.434826000000D+06 0.400000000000D+01 0.000000000000D+00 0.000000000000D+00
 9 24  9 20  3 59 44.0 0.363957602531D-03 0.161435309565D-10 0.000000000000D+00
    0.500000000000D+01-0.204687500000D+02 0.496020661252D-08 0.185834174056D+01
   -0.105053186417D-05 0.311246258207D-02 0.400654971600D-05 0.515358366013D+04
    0.446384000000D+06 0.856816768646D-07 0.208469301311D+01 0.540167093277D-07
    0.959198608278D+00 0.299937500000D+03 0.198387438545D+01-0.840392148563D-08
   -0.307155651409D-10 0.100000000000D+01 0.233200000000D+04 0.000000000000D+00
    0.200000000000D+01 0.000000000000D+00 0.465661287308D-09 0.500000000000D+01
    0.441498000000D+06 0.400000000000D+01 0.000000000000D+00 0.000000000000D+00
17 24  9 20  3 59 44.0 0.621528830379D-03-0.115960574476D-10 0.000000000000D+00
    0.800000000000D+01-0.345312500000D+02 0.494520598768D-08 0.125578918455D+01
   -0.220909714699D-05 0.134944515303D-01 0.187754631042D-05 0.515353919792D+04
    0.446384000000D+06 0.465661287308D-07-0.971256543774D+00-0.262632966042D-06
    0.966910727644D+00 0.346812500000D+03-0.129767930832D+01-0.862785938497D-08
   -0.268225458381D-09 0.100000000000D+01 0.233200000000D+04 0.000000000000D+00
    0.200000000000D+01 0.000000000000D+00-0.111758708954D-07 0.800000000000D+01
    0.443706000000D+06 0.400000000000D+01 0.000000000000D+00 0.000000000000D+00
22 24  9 20  3 59 44.0-0.635567121208D-04-0.363797880709D-11 0.000000000000D+00
    0.400000000000D+01 0.114656250000D+03 0.468019494891D-08 0.184123160724D+01
    0.592693686485D-05 0.140878396342D-01 0.763498246670D-05 0.515369144440D+04
    0.446384000000D+06 0.221654772759D-06-0.198934498663D+01-0.428408384323D-07
    0.960325827620D+00 0.228875000000D+03-0.111456691149D+01-0.805783564120D-08
    0.383587406527D-09 0.100000000000D+01 0.233200000000D+04 0.000000000000D+00
    0.200000000000D+01 0.000000000000D+00-0.111758708954D-07 0.400000000000D+01
    0.441126000000D+06 0.400000000000D+01 0.000000000000D+00 0.000000000000D+00
27 24  9 20  3 59 44.0-0.338894315064D-04-0.113686837722D-12 0.000000000000D+00
    0.300000000000D+01-0.236562500000D+02 0.529486340946D-08 0.140765866462D+01
   -0.119768083096D-05 0.126174285542D-01 0.171363353729D-05 0.515367780304D+04
    0.446384000000D+06-0.270083546638D-06-0.104035281400D+01 0.171363353729D-06
    0.960121520869D+00 0.349656250000D+03 0.798796951088D+00-0.891894293834D-08
   -0.252510518077D-09 0.100000000000D+01 0.233200000000D+04 0.000000000000D+00
    0.200000000000D+01 0.000000000000D+00 0.186264514923D-08 0.300000000000D+01
    0.439218000000D+06 0.400000000000D+01 0.000000000000D+00 0.000000000000D+00
32 24  9 20  3 59 44.0-0.595447141677D-03 0.375166564481D-11 0.000000000000D+00
    0.700000000000D+01-0.272187500000D+02 0.487556022951D-08 0.205583508585D+01
   -0.137463212013D-05 0.787020311691D-02 0.405870378017D-05 0.515371742630D+04
    0.446384000000D+06-0.894069671631D-07 0.209977117809D+01-0.210478901863D-06
    0.962558556599D+00 0.300281250000D+03-0.213454285660D+01-0.836927718542D-08
   -0.667884962947D-10 0.100000000000D+01 0.233200000000D+04 0.000000000000D+00
    0.200000000000D+01 0.000000000000D+00 0.931322600000D-09 0.700000000000D+01
    0.445500000000D+06 0.400000000000D+01 0.000000000000D+00 0.000000000000D+00
 1 24  9 20  4  0  0.0 0.193370971829D-03-0.966338120634D-11 0.000000000000D+00
    0.890000000000D+02 0.144250000000D+03 0.592488965258D-08 0.281253579533D+01
    0.721961259842D-05 0.134493804071D-01 0.857189297676D-05 0.515362509537D+04
    0.446400000000D+06 0.875443220139D-07-0.206383901349D+01-0.141561031342D-06
    0.953684637433D+00 0.211093750000D+03 0.103623617716D+01-0.802461997192D-08
    0.505021036153D-09 0.100000000000D+01 0.233200000000D+04 0.000000000000D+00
    0.280000000000D+01 0.630000000000D+02-0.195577740669D-07 0.890000000000D+02
    0.439278000000D+06 0.400000000000D+01 0.000000000000D+00 0.000000000000D+00
 2 24  9 20  4  0  0.0-0.354377087206D-03 0.795807864051D-11 0.000000000000D+00
    0.190000000000D+03-0.128281250000D+03 0.423839083171D-08 0.151586929299D+01
   -0.693090260029D-05 0.161447641440D-01 0.103227794170D-04 0.515369425011D+04
    0.446400000000D+06 0.353902578354D-06-0.690880237592D-01-0.184401869774D-06
    0.967283324102D+00 0.177500000000D+03-0.113115207373D+01-0.793068748782D-08
   -0.575023952056D-09 0.100000000000D+01 0.233200000000D+04 0.000000000000D+00
    0.200000000000D+01 0.000000000000D+00-0.176951289177D-07 0.190000000000D+03
    0.443388000000D+06 0.400000000000D+01 0.000000000000D+00 0.000000000000D+00
 3 24  9 20  4  0  0.0 0.543759670109D-03 0.130739863380D-10 0.000000000000D+00
    0.100000000000D+02 0.435000000000D+02 0.381873049403D-08-0.203612735715D+01
    0.230967998505D-05 0.572942453437D-02 0.106394290924D-04 0.515365793991D+04
    0.446400000000D+06 0.134110450745D-06 0.106715983837D+01-0.409781932831D-07
    0.985931750895D+00 0.189000000000D+03 0.116134874366D+01-0.763460372618D-08
    0.607882463602D-09 0.100000000000D+01 0.233200000000D+04 0.000000000000D+00
    0.200000000000D+01 0.000000000000D+00 0.139698386192D-08 0.100000000000D+02
    0.439218000000D+06 0.400000000000D+01 0.000000000000D+00 0.000000000000D+00
 4 24  9 20  4  0  0.0 0.446934718639D-03 0.704858393874D-11 0.000000000000D+00
    0.116000000000D+03-0.290625000000D+02 0.483663003648D-08 0.103644675690D+01
   -0.144354999065D-05 0.302451942116D-02 0.430457293987D-05 0.515369482803D+04
    0.446400000000D+06-0.428408384323D-07 0.214512824948D+01 0.126659870148D-06
    0.965546543369D+00 0.298937500000D+03-0.300150249480D+01-0.834070456668D-08
   -0.142505935944D-09 0.100000000000D+01 0.233200000000D+04 0.000000000000D+00
    0.200000000000D+01 0.000000000000D+00-0.465661287308D-08 0.372000000000D+03
    0.439218000000D+06 0.400000000000D+01 0.000000000000D+00 0.000000000000D+00
 5 24  9 20  4  0  0.0-0.187170226127D-03-0.125055521494D-11 0.000000000000D+00
    0.550000000000D+02 0.412812500000D+02 0.414445834761D-08 0.167008429010D+01
    0.197254121304D-05 0.587982602883D-02 0.101104378700D-04 0.515367542839D+04
    0.446400000000D+06-0.204890966415D-07 0.101430639000D+01-0.171363353729D-06
    0.972881651192D+00 0.194062500000D+03 0.132959764264D+01-0.791354391658D-08
    0.494306304127D-09 0.100000000000D+01 0.233200000000D+04 0.000000000000D+00
    0.200000000000D+01 0.000000000000D+00-0.107102096081D-07 0.550000000000D+02
    0.439218000000D+06 0.400000000000D+01 0.000000000000D+00 0.000000000000D+00
